[{"OBJECT_NAME":"STARLINK-36051","OBJECT_ID":"2025-278C","EPOCH":"2026-03-09T12:46:51.640896","MEAN_MOTION":15.27605845,"ECCENTRICITY":0.00013901,"INCLINATION":43.0008,"RA_OF_ASC_NODE":115.3777,"ARG_OF_PERICENTER":291.3776,"MEAN_ANOMALY":68.6928,"EPHEMERIS_TYPE":0,"CLASSIFICATION_TYPE":"U","NORAD_CAT_ID":66793,"ELEMENT_SET_NO":999,"REV_AT_EPOCH":1518,"BSTAR":0.0011476926,"MEAN_MOTION_DOT":0.0003148,"MEAN_MOTION_DDOT":0},{"OBJECT_NAME":"COSMOS 1975","OBJECT_ID":"1988-093A","EPOCH":"2026-03-09T14:15:08.474112","MEAN_MOTION":15.28069249,"ECCENTRICITY":0.0012117,"INCLINATION":82.5181,"RA_OF_ASC_NODE":117.7814,"ARG_OF_PERICENTER":163.8427,"MEAN_ANOMALY":196.3201,"EPHEMERIS_TYPE":0,"CLASSIFICATION_TYPE":"U","NORAD_CAT_ID":19573,"ELEMENT_SET_NO":999,"REV_AT_EPOCH":1939,"BSTAR":0.0002787,"MEAN_MOTION_DOT":7.676e-5,"MEAN_MOTION_DDOT":0}]
